Name,Address,Suburb,Postcode,State,Latitude,Longitude,Business Category,LGA,Region
Aquabear AUSSI Masters,La Trobe University Sports Centre,Bundoora,3083,VIC,-37.69706,145.059002,Swimming Club,"Whittlesea,Darebin,Banyule",North and West Metropolitan Region
Ballarat GCO Swim Club,PO Box 1709,Ballarat,3354,VIC,-37.558102,143.892045,Swimming Club,Ballarat,Grampians
Broadmeadows Swimming Clubs,PO Box 605,Glenroy,3046,VIC,-37.704475,144.916351,Swimming Club,Moreland,North and West Metropolitan Region
Craigieburn Amateur Swimming Club Inc,PO Box 347,Craigieburn,3064,VIC,-37.598443,144.941816,Swimming Club,"Whittlesea,Hume",North and West Metropolitan Region
Doncaster Templestowe Amateur Swim Club (DTASC),Aquarena,Doncaster,3108,VIC,-37.774004,145.122754,Swimming Club,Manningham,Eastern Metro
Eltham Swimming School,1441 Main Road,Eltham North,3095,VIC,-37.701682,145.175489,Swimming Club,Nillumbik,North and West Metropolitan Region
Frankston Peninsula AUSSI Masters,Jubilee Park Swimming Pool,Frankston,3199,VIC,-38.141399,145.122464,Swimming Club,Frankston,Southern Metro
Geelong Swimming Club,Park Crescent,Geelong South,3220,VIC,-38.159916,144.352101,Swimming Club,Greater Geelong,Barwon S/W
Heidelberg Flyers AUSSI Masters,Heidelberg Aquatic Centre,Heidelberg,3084,VIC,-37.756367,145.066849,Swimming Club,Banyule,North and West Metropolitan Region
Hoppers Crossing AUSSI Masters,Laverton Fitness Centre,Laverton,3028,VIC,-37.862015,144.769795,Swimming Club,"Wyndham,Hobsons Bay",North and West Metropolitan Region
Ivanhoe Aqua Power Swimming Club,123 Upper Heidelberg Street,Ivanhoe,3079,VIC,-37.769105,145.041994,Swimming Club,Banyule,North and West Metropolitan Region
Jayson Lamb's Splash Factory,Warrnambool College Pool,Warrambool,3280,VIC,-38.382766,142.484499,Swimming Club,Warrnambool,Barwon South Western
Just Swimming Syndal,554 High Street Road,Mount Waverley,3149,VIC,-37.872319,145.146894,Swimming Club,Monash,Eastern Metro
Kilmore Country Masters Swimming Club,White Street,Kilmore,3764,VIC,-37.303736,144.952241,Swimming Club,Mitchell,Hume
Kilmore District Amateur Swimming Club,White Street,Kilmore,3764,VIC,-37.303736,144.952241,Swimming Club,Mitchell,Hume
Kingfish AUSSI Masters Swimming Club,King Club,Cheltenham,3192,VIC,-37.964428,145.055984,Swimming Club,"Kingston , Bayside",Southern Metro
Kingston AUSSI Masters,Waves Leisure Centre,Highett,3190,VIC,-37.948845,145.042847,Swimming Club,"Kingston , Bayside",Southern Metro
Leisure City Dolphins,Miller Street,Epping,3076,VIC,-37.644406,145.020483,Swimming Club,Whittlesea,North and West Metropolitan Region
Malvern Marlins AUSSI Masters,Harold Holt Memorial Pool,Malvern,3144,VIC,-37.862072,145.028336,Swimming Club,Stonnington,Southern Metro
Maroondah AUSSI Masters,Kilsyth Swimming Pool,Kilsyth,3137,VIC,-37.802271,145.307898,Swimming Club,"Yarra Ranges , Maroondah",Eastern Metro
Melbourne Olympic AUSSI Masters,Armadale Swim Pool,Armadale,3143,VIC,-37.855631,145.022115,Swimming Club,Stonnington,Southern Metro
Melbourne Olympic AUSSI Masters,Kilsyth Swimming Pool,Kilsyth,3137,VIC,-37.802271,145.307898,Swimming Club,"Yarra Ranges , Maroondah",Eastern Metro
Melbourne Vicentre Swimming Club,"Melbourne Sports & Aquatic Centre, Aughtie Drive",Albert Park,3206,VIC,-37.84651,144.966152,Swimming Club,Port Phillip,Southern Metro
Mildura Amateur Swimming Club Inc,Twelfth Street,Mildura,3500,VIC,-34.189177,142.15337,Swimming Club,Mildura Rural,Loddon-Mallee
North Lodge Neptunes AUSSI Masters,North Lodge Swimming Academy,Dandenong,3175,VIC,-37.98746,145.214861,Swimming Club,Greater Dandenong,Southern Metro
Northcote Swimming and Lifesaving Club,Northcote Aquatic and Recreation Centre,Northcote,3070,VIC,-37.769378,144.999087,Swimming Club,Darebin,North and West Metropolitan Region
Northcote Yabbies AUSSI Masters,Ivanhoe Grammer School ,Ivanhoe,3079,VIC,-37.768791,145.042313,Swimming Club,Banyule,North and West Metropolitan Region
Nunawading Swimming Club,Fraser Place,Forest Hill,3131,VIC,-37.837627,145.174814,Swimming Club,Whitehorse,Eastern Metro
Powerpoints AUSSI Masters,Prahran Pool,Prahran,3181,VIC,-37.851524,144.993484,Swimming Club,Stonnington,Southern Metro
Seymour's Swim School,23 Graves Street,Essendon,3040,VIC,-37.741183,144.89604,Swimming Club,Moonee Valley,North and West Metropolitan Region
South Barwon Swimming Club,PO Box 1301,Geelong,3220,VIC,-38.148544,144.361348,Swimming Club,Greater Geelong,Barwon S/W
Stingrays AUSSI Masters,Footscray Swimming Centre,Footscray,3011,VIC,-37.799736,144.899734,Swimming Club,Maribyrnong,North and West Metropolitan Region
Sunshine Swimming Club,Service Street,Sunshine,3020,VIC,-37.783319,144.83497,Swimming Club,"Maribyrnong,Brimbank",North and West Metropolitan Region
Surrey Park Seahorses AUSSI Masters,Whitehorse Aquatic & Leisure Centre,Box Hill,3128,VIC,-37.81903,145.123543,Swimming Club,Whitehorse,Eastern Metro
Surrey Park Swimming Club,Whitehorse Aquatic & Leisure Centre,Box Hill,3128,VIC,-37.81903,145.123543,Swimming Club,Whitehorse,Eastern Metro
Syndal Sharks AUSSI Masters,Presbyterian Ladies College,Burwood,3125,VIC,-37.85014,145.119031,Swimming Club,"Whitehorse , Monash , Boroondara",Eastern Metro
Warrnambool Swimming Club,PO Box 688,Warrnambool,3280,VIC,-38.382766,142.484499,Swimming Club,Warrnambool,Barwon S/W
Werribee Swimming Club,PO Box 250,Werribee,3030,VIC,-37.902906,144.658475,Swimming Club,"Wyndham,Melton,Brimbank",North and West Metropolitan Region
Western Alligators AUSSI Masters,Altona Swim & Fitness Centre,Altona,3018,VIC,-37.869471,144.830246,Swimming Club,Hobsons Bay,North and West Metropolitan Region
Wodonga Swimming Club,C/- 5 Roseland Road,Wodonga,3690,VIC,-36.125331,146.868429,Swimming Club,Wodonga Rural,Hume
Yarra Plenty Swimming Club Inc,Liat Way (off Sainsbury Avenue),Greensborough,3088,VIC,-37.713926,145.098387,Swimming Club,"Nillumbik,Banyule",North and West Metropolitan Region
Yarra Roughies AUSSI Masters,Richmond Aquatic Centre,Richmond,3121,VIC,-37.818635,145.00147,Swimming Club,Yarra,North and West Metropolitan Region
Yarra Swim School,Liat Way (off Sainsbury Avenue),Greensborough,3088,VIC,-37.713926,145.098387,Swimming Club,"Nillumbik,Banyule",North and West Metropolitan Region
Benalla Aquatic Centre,4 Mair Street,Benalla,3672,VIC,-36.551032,145.980757,"Swimming Club,Swimming Pool",Delatite,Hume
Diamond Valley Swimming Club,Flintoff Street,Greensbourgh,3088,VIC,-37.70436,145.106209,"Swimming Club,Swimming Pool",Whittlesea; Darebin; Banyule,North and West Metropolitan Region
Northern Swimming Pool,271 Belmore Road,Balwyn North,3014,VIC,-37.803588,145.085498,"Swimming Club,Swimming Pool",Boroondara,Eastern Metro
Swimland,452 Springvale Road,Glen Waverley,3150,VIC,-37.894951,145.162937,"Swimming Club,Swimming Pool",Monash,Eastern Metro
Warburton Outdoor Pool,Warburton Highway,Warburton,3799,VIC,-37.754687,145.685086,"Swimming Club,Swimming Pool",Yarra Ranges,Eastern Metro
Apollo Bay Swimming Pool,Costin Street,Apollo Bay,3233,VIC,-38.752749,143.660028,Swimming Pool,Colac-Otway (S),Barwon South Western Region
Aquacoaster Water Slide,18 Orange Avenue,Mildura,3500,VIC,-34.186141,142.166238,Swimming Pool,Mildura Rural,Loddon-Mallee
Aquastyle,5 Mill Park Drive,Mill Park,3082,VIC,-37.674087,145.066801,Swimming Pool,Whittlesea,North and West Metropolitan Region
Aquastyle,5 Development Boulevard,Mill Park,3082,VIC,-37.657562,145.080777,Swimming Pool,Whittlesea,North and West Metropolitan Region
Ararat Solar Olympic Pool,Alexander Gardens,Ararat,3377,VIC,-37.280396,142.929782,Swimming Pool,Ararat (RC),Grampians Region
Avenel Swimming Pool,Queen Street,Avenel,3664,VIC,-36.896978,145.229696,Swimming Pool,Strathbogie,Hume
Avoca Swimming Pool,Rutherford Street,Avoca,3467,VIC,-37.091937,143.476036,Swimming Pool,Pyrenees,Grampians
A.B.C. Swim Centre,1 Balaka Street,Rosebud,3939,VIC,-38.367646,144.880802,Swimming Pool,Mornington Peninsula,Southern Metro
Bacchus Marsh Outdoor Pool,Grant Street,Bacchus Marsh,3340,VIC,-37.679082,144.434692,Swimming Pool,"Wyndham , Moorabool , Melton",Grampians Region
Bairnsdale Outdoor Pool,Turnbull Street,Bairnsdale,3875,VIC,-37.822221,147.619401,Swimming Pool,East Gippsland,Gippsland
Ballan Outdoor Pool,Blackwood Road,Ballan,3341,VIC,-37.564903,144.281511,Swimming Pool,Moorabool (S),Grampians Region
Beechworth Swimming Pool,"Beechworth Swimming Complex, Harper Avenue",Beechworth,3747,VIC,-36.363204,146.687768,Swimming Pool,Indigo,Hume
Belgrave Swimming Pool,Best Street,Belgrave,3160,VIC,-37.914123,145.349994,Swimming Pool,Yarra Ranges,Eastern Metro
Bendigo Aquatics Centre,Barnard Street,Bendigo,3550,VIC,-36.755587,144.273349,Swimming Pool,Greater Bendigo,Loddon-Mallee
Bendigo East Solar Heated Pool,Lansell Street,Bendigo,3550,VIC,-36.755263,144.296399,Swimming Pool,Greater Bendigo,Loddon-Mallee
Bendigo Heated Pool,12 Vine Street,Bendigo,3550,VIC,-36.762794,144.273119,Swimming Pool,Greater Bendigo (C),Loddon-Mallee Region
Black Hill Swimming Pool,Chisholm Street,Ballarat,3350,VIC,-37.550121,143.870973,Swimming Pool,Ballarat,Grampians
Boort Swimming Pool,Lakeview Street,Boort,3537,VIC,-36.119605,143.721591,Swimming Pool,Loddon,Loddon-Mallee
Brennan Park Acquatic Centre,Cnr Houlahan Street,Bendigo,3550,VIC,-36.774105,144.299557,Swimming Pool,Greater Bendigo,Loddon-Mallee
Briar Hill Swimming Pool Centre,"Shop 5, 111 Mountain View Road",Briar Hill,3088,VIC,-37.709304,145.11944,Swimming Pool,"Nillumbik,Banyule",North and West Metropolitan Region
Broadford Swimming Centre,Hamilton Street,Broadford,3658,VIC,-37.205293,145.045241,Swimming Pool,Mitchell,Hume
Broadmeadows Swimming Centre,Goulburn Street,Broadmeadows,3047,VIC ,-37.684293,144.934967,Swimming Pool,Hume,North and West Metropolitan Region
Camberwell Swim School,2 Torrington Street,Canterbury,3126,VIC,-37.818438,145.060426,Swimming Pool,Boroondara (C),Eastern Metropolitan Region
Caulfield Swim Centre,Moira Avenue,Caulfield,3162,VIC,-37.89609,145.050812,Swimming Pool,Glen Eira,Southern Metro
Charlton Swimming Pool,Gordon Park,Charlton,3525,VIC,-36.251838,143.361307,Swimming Pool,Buloke,Loddon-Mallee
Chewton Swimming Pool,Chewton Memorial Park,Chewton,3451,VIC,-37.082781,144.255558,Swimming Pool,,
Cobden Swimming Pool,Victoria Street,Cobden,3266,VIC,-38.327098,143.077492,Swimming Pool,Corangamite,Barwon S/W
Cobram Memorial Swimming Pool,Punt Road,Cobram,3644,VIC,-35.918994,145.651681,Swimming Pool,Moira,Hume
Coburg Olympic Outdoor Pool,Murray Road,Coburg,3058,VIC,-37.73543,144.977681,Swimming Pool,Moreland,North and West Metropolitan Region
Cohuna Swimming Pool,Recreation Reserve,Cohuna,3568,VIC,-35.809472,144.222375,Swimming Pool,Gannawarra,Loddon-Mallee
Crib Point Heated Pool,Governor Road,Crib Point,3919,VIC,-38.35822,145.203336,Swimming Pool,Mornington Peninsula,Southern Metro
Croydon Memorial Pool,Cnr Springfield Avenue and Hewish Road,Croydon,3136,VIC,-37.79674,145.286895,Swimming Pool,Maroondah (C),Eastern Metropolitan Region
Daylesford Swimming Pool,Central Springs Road,Daylesford,3460,VIC,-37.343567,144.142547,Swimming Pool,Hepburn,Grampians
Diamond Creek Swimming Pool,1 Elizabeth Street,Diamond Creek,3089,VIC,-37.671872,145.155829,Swimming Pool,Nillumbik,North and West Metropolitan Region
Donald Swimming Pool,24 Campbell Street,Donald,3480,VIC,-36.372454,142.988142,Swimming Pool,Buloke,Loddon-Mallee
Doveton Pool In The Park - YMCA,Cnr Tristania Street & Kidd Road,Doveton,3177,VIC,-37.988128,145.243231,Swimming Pool,"Greater Dandenong , Casey",Southern Metro
Dunolly Aquatic Centre,Market Street,Dunolly,3472,VIC,-36.858399,143.733551,Swimming Pool,Central Goldfields,Loddon-Mallee
East Bentleigh Swimming Pool,East Boundary Road,Bentleigh East,3165,VIC,-37.921079,145.059253,Swimming Pool,Glen Eira,Southern Metro
Echucha War Memorial Aquatic Centre,Cnr Service & High Streets,Echuca,3564,VIC,-36.138941,144.750716,Swimming Pool,Campaspe,Loddon-Mallee
Elmore Swimming Pool,Hunter Road,Elmore,3558,VIC,-36.431939,144.616434,Swimming Pool,Greater Bendigo,Loddon-Mallee
Euroa Swimming Pool,Bury Street,Euroa,3666,VIC,-36.753946,145.570302,Swimming Pool,Strathbogie,Hume
Foster Swimming Pool,Reserve Road,Foster,3960,VIC,-38.656406,146.196582,Swimming Pool,South Gippsland,Gippsland
Gisborne Swim Centre,6 Aitken Street,Gisborne,3437,VIC,-37.484744,144.590852,Swimming Pool,"Macedon Ranges , Melton",Loddon-Mallee
Golden Square Swimming Pool,Maple Street,Bendigo,3550,VIC,-36.759616,144.252614,Swimming Pool,Greater Bendigo,Loddon-Mallee
Greensborough Swimming Pool,Flintoff Street,Greensborough,3088,VIC,-37.70436,145.106209,Swimming Pool,"Nillumbik,Banyule",North and West Metropolitan Region
Hamilton Olympic Swimming Pool,Hamilton Place,Hamilton,3300,VIC,-37.742465,142.016185,Swimming Pool,Southern Grampians,Barwon South Western Region
Albert Park Model Yacht Club,Lakeside Drive,Albert Park,3206,VIC,-37.849367,144.97685,Sailing/Boating Club,Port Phillip,Southern Metro
Albert Park Yacht Club,Aquatic Drive,South Melbourne,3205,VIC,-37.841693,144.966981,Sailing/Boating Club,Port Phillip,Southern Metro
Albert Sailing Club,Aquatic Drive,South Melbourne,3205,VIC,-37.841693,144.966981,Sailing/Boating Club,Port Phillip,Southern Metro
Altona Yacht Club Inc.,Cresser Reserve,Seaholme,3018,VIC,-37.866701,144.845278,Sailing/Boating Club,Hobsons Bay,North and West Metropolitan Region
Apollo Bay Sailing Club,Apollo Bay Harbour,Apollo Bay,3233,VIC,-38.757167,143.669613,Sailing/Boating Club,Colac-otway,Barwon S/W
Ballarat Yacht Club,Wendouree Parade,Ballarat,3350,VIC,-37.544786,143.834625,Sailing/Boating Club,Ballarat,Grampians
Beaconhills Sailing Club,Toomuc Valley Road,Pakenham,3810,VIC,-38.039264,145.463216,Sailing/Boating Club,Cardinia,Southern Metro
Beaumaris Yacht Club,Ricketts Point,Beaumaris,3193,VIC,-37.994539,145.030861,Sailing/Boating Club,Bayside,Southern Metro
Bendigo Yacht Club,45 Sunset Drive,Lake Eppalock,3551,VIC,-36.86233,144.505302,Sailing/Boating Club,Greater Bendigo,Loddon-Mallee
Black Rock Yacht Club,Half Moon Bay,Black Rock,3193,VIC,-37.973949,145.01651,Sailing/Boating Club,Bayside,Southern Metro
Blairgowrie Yacht Squadron,2900 Point Nepean Road,Blairgowrie,3942,VIC,-38.358728,144.772804,Sailing/Boating Club,Mornington Peninsula,Southern Metro
Boomaroo/Catalina Yacht Club,1 Susanne Court,Romsey,3434,VIC,-37.357751,144.747016,Sailing/Boating Club,Macedon Ranges,Loddon-Mallee
Cairn Curran Sailing Club,Cairn Curran Reservoir,Castlemaine,3450,VIC,-37.06444,144.2172,Sailing/Boating Club,Mount Alexander,Loddon-Mallee
Carrum Sailing Club,Carrum Foreshore,Chelsea,3196,VIC,-38.052059,145.115906,Sailing/Boating Club,Kingston,Southern Metro
Chelsea Yacht Club,Foreshore Chelsea,Chelsea,3196,VIC,-38.052059,145.115906,Sailing/Boating Club,Kingston,Southern Metro
Colac Yacht Club,Western Bay,Colac,3250,VIC,-38.338015,143.568255,Sailing/Boating Club,Colac-otway,Barwon S/W
Corio Bay Sailing Club,Foreshore Road,Corio,3214,VIC,-38.073662,144.397072,Sailing/Boating Club,Greater Geelong,Barwon S/W
Corner Inlet Boat Club,Cnr Port Welshpool Road & Lewis Street,Port Welshpool,3965,VIC,-38.698784,146.453203,Sailing/Boating Club,,
Cowes Yacht Club,Osborne Avenue,Cowes,3922,VIC,-38.450255,145.2344,Sailing/Boating Club,Bass Coast,Gippsland
Daveys Bay Yacht Club,Bottom of Davey's Bay Road,Mount Eliza,3930,VIC,-38.170596,145.090085,Sailing/Boating Club,Mornington Peninsula,Southern Metro
Derrinallum Yacht and Power Boat Club,Chatsworth Road,Derrinallum,3325,VIC,-37.933342,143.154665,Sailing/Boating Club,Corangamite,Barwon S/W
Docklands Yacht Club,Harbour Esplanade,Docklands,3008,VIC,-37.817285,144.945893,Sailing/Boating Club,,
Elwood Sailing Club,Elwood Foreshore,Elwood,3184,VIC,-37.882195,144.983109,Sailing/Boating Club,Port Phillip,Southern Metro
Flinders Yacht Club,The Foreshore,Flinders,3929,VIC,-38.474038,145.016315,Sailing/Boating Club,Mornington Peninsula,Southern Metro
Frankston Yacht Club,Foreshore Street,Frankston,3199,VIC,-38.141399,145.122464,Sailing/Boating Club,Frankston,Southern Metro
Geelong Trailable Yacht Club,PO Box 899,Geelong,3220,VIC,-38.148544,144.361348,Sailing/Boating Club,Greater Geelong,Barwon S/W
Gippsland Lakes Yacht Club,The Esplanade,Paynesville,3880,VIC,-37.919419,147.721817,Sailing/Boating Club,East Gippsland,Gippsland
Hampton Sailing Club,Jetty Road,Sandringham,3191,VIC,-37.945755,144.997501,Sailing/Boating Club,Bayside,Southern Metro
Hastings Yacht Club,1 Marine Parade,Hastings,3915,VIC,-38.309368,145.197393,Sailing/Boating Club,Mornington Peninsula,Southern Metro
HMAS Cerberus Sailing Club,PO Box 135,HMAS Cerberus,3920,VIC,-38.394324,145.209351,Sailing/Boating Club,,
Hobsons Bay Yacht Club,268 Nelson Place,Williamstown,3016,VIC,-37.859777,144.902607,Sailing/Boating Club,Hobsons Bay,North and West Metropolitan Region
Lagoon Boat Club,Foreshore Road,Corio,3214,VIC,-38.073662,144.397072,Sailing/Boating Club,Greater Geelong,Barwon S/W
Lake Boga Yacht Club,Murray Valley Highway,Lake Boga,3584,VIC,-35.466739,143.647155,Sailing/Boating Club,Swan Hill Rural,Loddon-Mallee
Lake Cullulleraine Yacht Club,PO Box 1720,Mildura,3502,VIC,-34.198842,142.16321,Sailing/Boating Club,Mildura Rural,Loddon-Mallee
Lake Glenmaggie Yacht Club,"Kelly's Cove, Lake Glenmaggie",Coongulla,3860,VIC,-37.894899,146.784306,Sailing/Boating Club,,
Lake Hawthorn Sailing Club,Dyar Avenue,Cabarita,3505,VIC,-34.215001,142.086707,Sailing/Boating Club,,
Lake Learmonth Yacht Club,31 Scenic Crescent,Ballarat,3353,VIC,-37.541023,143.879275,Sailing/Boating Club,Ballarat,Grampians
Lake Wellington Yacht Club,Marlay Point,Clydebank,3851,VIC,-38.056852,147.212128,Sailing/Boating Club,,
Latrobe Valley Yacht Club,Yinnar Road,Hazelwood,3840,VIC,-38.296359,146.357161,Sailing/Boating Club,,
Loch Sport Boat Club,Charles Street,Loch Sport,3851,VIC,-38.054184,147.573646,Sailing/Boating Club,Wellington,Gippsland
Lysterfield Sailing Club Inc.,Lysterfield Lake Park,Lysterfield,3156,VIC,-37.963892,145.297279,Sailing/Boating Club,"Yarra Ranges , Knox",Eastern Metro
McCrae Yacht Club,690 Point Nepean Road,McCrae,3938,VIC,-38.348539,144.927544,Sailing/Boating Club,Mornington Peninsula,Southern Metro
Melbourne Trailable Yacht Club,1 Boronia Street ,Pascoe Vale,3044,VIC,-37.735435,144.947889,Sailing/Boating Club,Moreland,North and West Metropolitan Region
Merricks Yacht Club,PO Box 90,Balnarring,3926,VIC,-38.373798,145.125992,Sailing/Boating Club,Mornington Peninsula,Southern Metro
Metung Yacht Racing Club,113 Metung Road,Metung,3904,VIC,-37.887816,147.856742,Sailing/Boating Club,,
Mordialloc Motor Yacht Club,Lamberts Island,Mordialloc,3195,VIC,-38.009828,145.087331,Sailing/Boating Club,Kingston,Southern Metro
Mornington Yacht Club,Schnapper Point Drive,Mornington,3931,VIC,-38.215241,145.034239,Sailing/Boating Club,Mornington Peninsula,Southern Metro
Mt Martha Yacht Club,The Esplanade,Mount Martha,3934,VIC,-38.271257,145.007263,Sailing/Boating Club,Mornington Peninsula,Southern Metro
Multihull Yacht Club of Victoria,272 Williamstown Road,Port Melbourne,3207,VIC,-37.836597,144.918102,Sailing/Boating Club,Port Phillip,Southern Metro
Newhaven Yacht Squadron,Seaview Street,Newhaven,3925,VIC,-38.514627,145.361644,Sailing/Boating Club,Bass Coast,Gippsland
Noelex Yacht Squadron,22 Harries Court,Narre Warren North,3804,VIC,-37.997278,145.321083,Sailing/Boating Club,Casey,Southern Metro
Ocean Racing Club of Victoria,Suite 27/91 Moreland Street,Footscray,3011,VIC,-37.808353,144.904492,Sailing/Boating Club,Maribyrnong,North and West Metropolitan Region
Parkdale Yacht Club,Beach Road,Parkdale,3195,VIC,-37.999348,145.075097,Sailing/Boating Club,Kingston,Southern Metro
Port Albert Yacht Club,Bay Street,Port Albert,3971,VIC,-38.669657,146.695198,Sailing/Boating Club,,
Port Fairy Yacht Club,Griffiths Street,Port Fairy,3284,VIC,-38.377712,142.242858,Sailing/Boating Club,Moyne,Barwon S/W
Port Melbourne Yacht Club,End of Bay Street,Port Melbourne,3207,VIC,-37.837711,144.943204,Sailing/Boating Club,Port Phillip,Southern Metro
Portarlington Sailing Club,Portarlington Foreshore,Portarlington,3223,VIC,-38.114587,144.652109,Sailing/Boating Club,Greater Geelong,Barwon S/W
Portland Yacht Club,Lee Breakwater Road,Portland,3305,VIC,-38.352525,141.611239,Sailing/Boating Club,Glenelg,Barwon S/W
Queenscliff Cruising Yacht Club,Sand Island,Swan Bay,3225,VIC,-38.224805,144.635585,Sailing/Boating Club,,
Queenscliff Lonsdale Yacht Club,PO Box 35,Queenscliff,3225,VIC,-38.267445,144.66145,Sailing/Boating Club,Queenscliffe (b),Barwon S/W
Ranelagh Yacht Squadron,3 Rosserdale Crescent,Mount Eliza,3930,VIC,-38.17677,145.078745,Sailing/Boating Club,Mornington Peninsula,Southern Metro
Rhyll Yacht Club,Foreshore,Rhyll,3923,VIC,-38.463737,145.304222,Sailing/Boating Club,,
Rosebud Yacht Club,Foreshore Reserve,Rosebud,3939,VIC,-38.361021,144.890055,Sailing/Boating Club,Mornington Peninsula,Southern Metro
Royal Brighton Yacht Club,253 The Esplanade,Brighton,3186,VIC,-37.909218,144.98601,Sailing/Boating Club,Bayside,Southern Metro
Royal Geelong Yacht Club,PO Box 156,Geelong,3220,VIC,-38.148544,144.361348,Sailing/Boating Club,Greater Geelong,Barwon S/W
Royal Melbourne Yacht Squadron,Pier Road,St Kilda,3182,VIC,-37.863818,144.971067,Sailing/Boating Club,Port Phillip,Southern Metro
Royal Yacht Club of Victoria,120 Nelson Place,Williamstown,3016,VIC,-37.862706,144.906094,Sailing/Boating Club,Hobsons Bay,North and West Metropolitan Region
Rye Yacht Club,2120  Point Nepean Road,Rye,3941,VIC,-38.370164,144.825312,Sailing/Boating Club,Mornington Peninsula,Southern Metro
Safety Beach Sailing Club,Marine Drive,Safety Beach,3936,VIC,-38.317895,144.98784,Sailing/Boating Club,Mornington Peninsula,Southern Metro
Sandringham Yacht Club,Jetty Road,Sandringham,3191,VIC,-37.945755,144.997501,Sailing/Boating Club,Bayside,Southern Metro
Somers Yacht Club,Alexandra Avenue,Somers,3927,VIC,-38.389165,145.158966,Sailing/Boating Club,Mornington Peninsula,Southern Metro
Sorrento Sailing Couta Boat Club,3154 Point Nepean Road,Sorrento,3943,VIC,-38.343871,144.753622,Sailing/Boating Club,Mornington Peninsula,Southern Metro
South Gippsland Yacht Club,22 The Esplanade,Inverloch,3996,VIC,-38.634331,145.729344,Sailing/Boating Club,Bass Coast,Gippsland
St Leonards Yacht Club & Motor Squadron,Lower Bluff Road ,St Leonards,3223,VIC,-38.18725,144.712424,Sailing/Boating Club,Greater Geelong,Barwon S/W
Stawell Yacht Club,Lake Fyans,Pomonal,3381,VIC,-37.138509,142.622619,Sailing/Boating Club,,
Sugarloaf Sailing & Boating Club,Gate 11 Ridge Road,Christmas Hills,3775,VIC,-37.659693,145.289512,Sailing/Boating Club,,
Surf Coast Sailing Club,Point Roadknight Boatramp,Anglesea,3230,VIC,-38.408404,144.177458,Sailing/Boating Club,Surf Coast,Barwon S/W
Torquay Sailing Club,Fishermens Beach,Torquay,3228,VIC,-38.325777,144.329804,Sailing/Boating Club,Surf Coast,Barwon S/W
Waranga Boat Club,Tatura Road,Rushworth,3612,VIC,-36.581411,145.024105,Sailing/Boating Club,"Greater Shepparton , Campaspe","Loddon-Mallee, Hume"
Warneet Yacht Club,PO Box 315,Tooradin,3980,VIC,-38.214054,145.380463,Sailing/Boating Club,Casey,Southern Metro
Warrnambool Yacht Club Inc.,Warrnambool Breakwater,Warrnambool,3280,VIC,-38.382766,142.484499,Sailing/Boating Club,Warrnambool,Barwon S/W
Western Port Mariners Club,Western Port Marina,Hastings,3915,VIC,-38.307583,145.190201,Sailing/Boating Club,Mornington Peninsula,Southern Metro
Westernport Yacht Club,Foreshore Road,Balnarring Beach,3926,VIC,-38.390705,145.12605,Sailing/Boating Club,,
Williamstown Sailing Club,PO Box 50,Williamstown,3016,VIC,-37.857292,144.897759,Sailing/Boating Club,Hobsons Bay,North and West Metropolitan Region
Yarrawonga Yacht Club,River Road,Yarrawonga,3730,VIC,-36.005615,146.018511,Sailing/Boating Club,Moira,Hume
Accessible Sailing Club of Victoria,C/-Yachting Victoria,Sandringham,3191,VIC,-37.949593,145.003738,"Disability,Sailing/Boating Club",Bayside,Southern Metro
Albert Park Yachting & Angling Club,Beaconsfield Parade,Albert Park,3206,VIC,-37.847902,144.948681,"Fishing Club,Recreation Group,Sailing/Boating Club",Port Phillip,Southern Metro
Mordialloc Boating & Angling Club,PO Box 5036,Mordialloc,3195,VIC,-38.006524,145.086334,"Fishing Club,Sailing/Boating Club",Kingston,Southern Metro